IRIDIUM 159             
1 43578U 18061K   25273.45803709  .00000149  00000+0  46181-4 0  9995
2 43578  86.4031 165.2697 0001979  85.6082 274.5340 14.34218541376152
IRIDIUM 180             
1 43922U 19002A   25273.52730227  .00000005  00000+0 -51365-5 0  9999
2 43922  86.3915 102.1645 0002017  92.0124 268.1303 14.34217539351776
IRIDIUM 176             
1 43923U 19002B   25273.52233838  .00000754  00000+0  11564-3 0  9991
2 43923  86.6047 102.1491 0003230  83.1338 277.0247 14.72254819361042
IRIDIUM 168             
1 43924U 19002C   25273.52095969  .00000027  00000+0  25453-5 0  9990
2 43924  86.3918 102.2373 0002043  89.5742 270.5688 14.34217679351752
IRIDIUM 173             
1 43925U 19002D   25273.22920010  .00000000  00000+0 -69699-5 0  9994
2 43925  86.3915 102.2588 0002154  91.7968 268.3474 14.34217535351698
IRIDIUM 169             
1 43926U 19002E   25273.46143775  .00000666  00000+0  21133-3 0  9992
2 43926  86.4230 133.7979 0003434  85.3317 274.8273 14.38612544352886
IRIDIUM 172             
1 43927U 19002F   25273.50193117  .00000062  00000+0  14941-4 0  9993
2 43927  86.3914 102.1517 0002002  95.4658 264.6766 14.34217733351748
IRIDIUM 175             
1 43928U 19002G   25273.38153322  .00002572  00000+0  40375-3 0  9991
2 43928  86.1498  48.7237 0002274  71.9202 288.2262 14.72264163361018
